{"type": "FeatureCollection", "features": [{"type": "Feature", "properties": {"name": "Thwake reservoir area of interest (AOI)", "description": "Upstream valley at or below FSL + margin, with rim overflow passes closed, merged with the max extent; islands filled.", "level_m_asl": 917.0, "aoi_buffer_above_fsl_m": 5.0, "area_km2": 35.11, "pass_closures": [{"lat": -1.79667, "lon": 37.82917, "overflow_level_m_asl": 913.0}], "pass_closure_radius_m": 150.0, "full_supply_level_m_asl": 912.0, "fsl_is_fallback": false, "fsl_note": "Design value from official documents (data/external/official_figures.csv); awaiting human verification (HUMAN-STEPS.md H6).", "fsl_sources": ["https://www.irrigation.go.ke/sites/default/files/downloads/ENVIRONMENT%20SOCIAL%20IMPACT%20ASSESSMENT%20(ESIA)%20-%20THWAKE%20MULTIPURPOSE%20WATER%20DEVELOPMENT%20PROGRAM%20(Final).pdf", "https://water.go.ke/sites/default/files/2025-01/TERMS%20OF%20REFERENCE%20FOR%20CONSULTING%20SERVICES%20FOR%20ATHI%20RIVER%20BASIN%20MODELLING.pdf"], "dem": "COPERNICUS/DEM/GLO30_2024_1", "dem_acquired": "2010-12-15/2014-05-24", "wall_axis": [[37.84005, -1.79363], [37.85021, -1.78505]], "wall_axis_length_m": 1476, "wall_axis_source": "Digitised 2026-10-09 (prompt 03) on a Sentinel-2 L2A median composite, Jun–Sep 2026; not a published value. ⚠️ verify (open question 1).", "wall_barrier": {"half_width_m": 45.0, "abutment_extension_m": 300.0, "end_elevations_m": [929.0, 926.1]}, "reservoir_seed": [37.84029, -1.78099], "downstream_check_point": [37.86, -1.81], "eight_connected": true, "search_bounds": [37.66538, -1.97021, 38.02488, -1.60847], "method": ".ai/docs/03-methodology.md §1.1–1.2", "method_version": "extent-v1", "generated": "2026-10-09"}, "geometry": {"type": "MultiPolygon", "coordinates": [[[[37.771806, -1.782917], [37.771806, -1.782639], [37.772083, -1.782639], [37.772083, -1.782917], [37.771806, -1.782917]]], [[[37.772083, -1.782639], [37.772083, -1.782361], [37.772361, -1.782361], [37.772361, -1.782639], [37.772083, -1.782639]]], [[[37.785417, -1.750417], [37.785417, -1.749861], [37.785972, -1.749861], [37.785972, -1.750139], [37.785694, -1.750139], [37.785694, -1.750417], [37.785417, -1.750417]]], [[[37.804861, -1.749861], [37.805139, -1.749861], [37.805139, -1.750139], [37.804861, -1.750139], [37.804861, -1.749861]]], [[[37.782639, -1.747083], [37.782361, -1.747083], [37.782361, -1.746806], [37.782639, -1.746806], [37.782639, -1.747083]]], [[[37.870417, -1.770417], [37.870417, -1.770694], [37.87125, -1.770694], [37.87125, -1.770417], [37.871528, -1.770417], [37.871528, -1.770694], [37.871806, -1.770694], [37.871806, -1.77125], [37.872083, -1.77125], [37.872083, -1.771528], [37.872361, -1.771528], [37.872361, -1.771806], [37.872639, -1.771806], [37.872639, -1.772083], [37.872917, -1.772083], [37.872917, -1.772361], [37.87375, -1.772361], [37.87375, -1.772083], [37.874028, -1.772083], [37.874028, -1.771528], [37.874583, -1.771528], [37.874583, -1.772917], [37.87375, -1.772917], [37.87375, -1.773194], [37.873472, -1.773194], [37.873472, -1.773472], [37.872917, -1.773472], [37.872917, -1.772639], [37.871806, -1.772639], [37.871806, -1.772361], [37.87125, -1.772361], [37.87125, -1.772639], [37.870139, -1.772639], [37.870139, -1.772361], [37.869583, -1.772361], [37.869583, -1.772083], [37.869306, -1.772083], [37.869028, -1.772083], [37.869028, -1.771806], [37.868472, -1.771806], [37.868472, -1.771528], [37.867917, -1.771528], [37.867917, -1.77125], [37.867639, -1.77125], [37.867639, -1.770694], [37.867361, -1.770694], [37.867361, -1.772639], [37.867639, -1.772639], [37.867639, -1.772917], [37.867083, -1.772917], [37.867083, -1.773194], [37.866806, -1.773194], [37.866806, -1.773472], [37.86625, -1.773472], [37.86625, -1.773194], [37.865972, -1.773194], [37.865972, -1.772917], [37.865139, -1.772917], [37.865139, -1.773194], [37.864861, -1.773194], [37.864861, -1.772917], [37.864583, -1.772917], [37.864583, -1.772639], [37.86375, -1.772639], [37.86375, -1.772917], [37.863472, -1.772917], [37.863472, -1.772639], [37.862917, -1.772639], [37.862917, -1.772361], [37.862361, -1.772361], [37.862361, -1.772917], [37.862083, -1.772917], [37.862083, -1.773194], [37.862083, -1.773472], [37.862361, -1.773472], [37.862361, -1.77375], [37.862639, -1.77375], [37.862639, -1.774028], [37.863194, -1.774028], [37.863194, -1.774306], [37.86375, -1.774306], [37.86375, -1.774583], [37.864028, -1.774583], [37.864028, -1.774861], [37.864306, -1.774861], [37.864306, -1.775139], [37.864583, -1.775139], [37.864583, -1.775694], [37.865139, -1.775694], [37.865139, -1.775972], [37.865417, -1.775972], [37.865417, -1.776528], [37.865694, -1.776528], [37.865694, -1.776806], [37.86625, -1.776806], [37.86625, -1.777083], [37.867083, -1.777083], [37.867083, -1.777361], [37.867361, -1.777361], [37.867361, -1.777639], [37.867917, -1.777639], [37.867917, -1.777917], [37.868194, -1.777917], [37.868194, -1.778194], [37.868472, -1.778194], [37.868472, -1.77875], [37.869028, -1.77875], [37.869028, -1.779306], [37.869306, -1.779306], [37.869306, -1.779583], [37.869861, -1.779583], [37.869861, -1.779861], [37.870417, -1.779861], [37.870417, -1.780417], [37.870972, -1.780417], [37.870972, -1.780694], [37.870139, -1.780694], [37.870139, -1.780417], [37.869306, -1.780417], [37.869306, -1.780694], [37.86875, -1.780694], [37.86875, -1.781528], [37.868472, -1.781528], [37.868472, -1.781806], [37.867361, -1.781806], [37.867361, -1.782639], [37.867083, -1.782639], [37.867083, -1.782361], [37.866528, -1.782361], [37.866528, -1.782639], [37.86625, -1.782639], [37.86625, -1.782917], [37.865972, -1.782917], [37.865972, -1.783194], [37.865417, -1.783194], [37.865417, -1.782639], [37.864583, -1.782639], [37.864583, -1.782361], [37.864306, -1.782361], [37.864306, -1.782083], [37.86375, -1.782083], [37.86375, -1.782361], [37.862361, -1.782361], [37.862361, -1.782083], [37.859861, -1.782083], [37.859861, -1.782361], [37.859583, -1.782361], [37.859306, -1.782361], [37.859306, -1.782639], [37.859028, -1.782639], [37.858472, -1.782639], [37.858472, -1.782917], [37.858194, -1.782917], [37.857917, -1.782917], [37.857917, -1.783194], [37.857639, -1.783194], [37.857361, -1.783194], [37.857361, -1.783472], [37.857083, -1.783472], [37.857083, -1.78375], [37.856806, -1.78375], [37.856806, -1.784028], [37.856528, -1.784028], [37.855972, -1.784028], [37.855694, -1.784028], [37.855694, -1.78375], [37.855139, -1.78375], [37.855139, -1.783472], [37.854583, -1.783472], [37.854583, -1.783194], [37.854028, -1.783194], [37.854028, -1.783472], [37.854028, -1.78375], [37.85375, -1.78375], [37.85375, -1.784028], [37.853194, -1.784028], [37.853194, -1.783472], [37.852917, -1.783472], [37.852917, -1.783194], [37.852639, -1.783194], [37.852639, -1.782917], [37.852083, -1.782917], [37.852083, -1.782639], [37.850972, -1.782639], [37.850417, -1.782639], [37.849861, -1.782639], [37.849861, -1.783472], [37.850139, -1.783472], [37.850139, -1.784028], [37.849861, -1.784028], [37.849861, -1.784306], [37.849861, -1.784861], [37.849583, -1.784861], [37.849583, -1.785139], [37.849306, -1.785139], [37.849306, -1.785417], [37.849028, -1.785417], [37.849028, -1.785694], [37.84875, -1.785694], [37.84875, -1.785972], [37.848194, -1.785972], [37.848194, -1.78625], [37.847917, -1.78625], [37.847917, -1.786528], [37.847639, -1.786528], [37.847639, -1.786806], [37.847361, -1.786806], [37.847361, -1.787083], [37.847083, -1.787083], [37.847083, -1.787361], [37.846806, -1.787361], [37.846806, -1.787639], [37.84625, -1.787639], [37.84625, -1.787917], [37.845972, -1.787917], [37.845972, -1.788194], [37.845694, -1.788194], [37.845694, -1.788472], [37.845417, -1.788472], [37.845417, -1.78875], [37.845139, -1.78875], [37.845139, -1.789028], [37.844583, -1.789028], [37.844583, -1.789306], [37.844306, -1.789306], [37.844306, -1.789583], [37.844028, -1.789583], [37.844028, -1.789861], [37.84375, -1.789861], [37.84375, -1.790139], [37.843472, -1.790139], [37.843472, -1.790417], [37.843194, -1.790417], [37.843194, -1.790694], [37.842639, -1.790694], [37.842639, -1.790972], [37.842361, -1.790972], [37.842361, -1.79125], [37.842083, -1.79125], [37.842083, -1.791528], [37.841806, -1.791528], [37.841806, -1.791806], [37.841528, -1.791806], [37.841528, -1.792083], [37.840972, -1.792083], [37.840972, -1.792361], [37.840694, -1.792361], [37.840694, -1.792639], [37.840417, -1.792639], [37.840417, -1.792917], [37.840139, -1.792917], [37.840139, -1.793194], [37.839861, -1.793194], [37.839861, -1.792917], [37.839583, -1.792917], [37.839583, -1.792639], [37.839306, -1.792639], [37.839306, -1.792361], [37.838194, -1.792361], [37.838194, -1.792639], [37.837917, -1.792639], [37.837917, -1.792917], [37.838194, -1.792917], [37.838194, -1.793194], [37.837917, -1.793194], [37.837917, -1.79375], [37.837361, -1.79375], [37.836806, -1.79375], [37.836528, -1.79375], [37.835972, -1.79375], [37.835972, -1.794028], [37.835417, -1.794028], [37.835417, -1.794306], [37.834583, -1.794306], [37.834583, -1.794583], [37.834028, -1.794583], [37.834028, -1.794861], [37.83375, -1.794861], [37.83375, -1.794306], [37.833472, -1.794306], [37.833472, -1.794028], [37.833194, -1.794028], [37.833194, -1.79375], [37.832083, -1.79375], [37.832083, -1.793472], [37.831806, -1.793472], [37.831806, -1.793194], [37.831528, -1.793194], [37.831528, -1.792917], [37.83125, -1.792917], [37.83125, -1.793194], [37.830972, -1.793194], [37.830972, -1.792917], [37.829306, -1.792917], [37.829306, -1.794306], [37.829028, -1.794306], [37.829028, -1.794861], [37.829306, -1.794861], [37.829306, -1.795417], [37.829028, -1.795417], [37.829028, -1.795694], [37.82875, -1.795694], [37.82875, -1.796528], [37.828194, -1.796528], [37.828194, -1.79625], [37.827917, -1.79625], [37.827917, -1.796528], [37.827639, -1.796528], [37.827639, -1.79625], [37.826806, -1.79625], [37.826806, -1.796528], [37.82625, -1.796528], [37.82625, -1.796806], [37.825972, -1.796806], [37.825972, -1.797083], [37.825694, -1.797083], [37.825694, -1.797361], [37.824861, -1.797361], [37.824861, -1.797083], [37.824583, -1.797083], [37.824583, -1.796528], [37.824306, -1.796528], [37.824306, -1.79625], [37.824028, -1.79625], [37.824028, -1.795694], [37.82375, -1.795694], [37.82375, -1.795417], [37.822639, -1.795417], [37.822639, -1.795694], [37.822361, -1.795694], [37.822361, -1.795417], [37.821806, -1.795417], [37.821806, -1.796528], [37.821528, -1.796528], [37.821528, -1.796806], [37.82125, -1.796806], [37.82125, -1.798194], [37.820972, -1.798194], [37.820972, -1.797917], [37.820694, -1.797917], [37.820694, -1.797639], [37.820139, -1.797639], [37.820139, -1.797083], [37.819861, -1.797083], [37.819861, -1.796806], [37.819583, -1.796806], [37.819583, -1.795417], [37.819028, -1.795417], [37.819028, -1.794583], [37.81875, -1.794583], [37.81875, -1.794028], [37.818472, -1.794028], [37.818472, -1.79375], [37.818194, -1.79375], [37.818194, -1.793472], [37.817917, -1.793472], [37.817917, -1.793194], [37.817639, -1.793194], [37.817639, -1.792639], [37.816528, -1.792639], [37.816528, -1.791806], [37.81625, -1.791806], [37.81625, -1.791528], [37.815417, -1.791528], [37.815417, -1.79125], [37.814306, -1.79125], [37.814306, -1.790972], [37.814028, -1.790972], [37.814028, -1.790694], [37.813194, -1.790694], [37.813194, -1.790972], [37.812917, -1.790972], [37.812917, -1.79125], [37.812361, -1.79125], [37.812361, -1.791806], [37.811528, -1.791806], [37.811528, -1.793194], [37.811806, -1.793194], [37.811806, -1.793472], [37.810972, -1.793472], [37.810972, -1.79375], [37.810694, -1.79375], [37.810694, -1.794028], [37.810417, -1.794028], [37.810417, -1.79375], [37.810139, -1.79375], [37.810139, -1.793472], [37.809583, -1.793472], [37.809583, -1.793194], [37.809306, -1.793194], [37.809306, -1.792917], [37.809028, -1.792917], [37.809028, -1.792639], [37.80875, -1.792639], [37.80875, -1.792917], [37.808472, -1.792917], [37.808472, -1.793472], [37.808194, -1.793472], [37.808194, -1.794583], [37.808472, -1.794583], [37.808472, -1.795972], [37.80875, -1.795972], [37.80875, -1.797639], [37.809028, -1.797639], [37.809028, -1.798194], [37.809306, -1.798194], [37.809306, -1.798472], [37.809583, -1.798472], [37.809583, -1.799583], [37.809861, -1.799583], [37.809861, -1.800139], [37.809583, -1.800139], [37.809583, -1.799861], [37.809306, -1.799861], [37.809306, -1.799306], [37.809028, -1.799306], [37.809028, -1.799028], [37.808472, -1.799028], [37.808472, -1.79875], [37.807917, -1.79875], [37.807917, -1.798472], [37.807639, -1.798472], [37.807639, -1.79875], [37.807361, -1.79875], [37.807361, -1.798472], [37.807083, -1.798472], [37.807083, -1.798194], [37.805972, -1.798194], [37.805972, -1.797917], [37.805417, -1.797917], [37.805417, -1.797639], [37.804861, -1.797639], [37.804861, -1.797917], [37.804028, -1.797917], [37.804028, -1.797639], [37.804583, -1.797639], [37.804583, -1.797361], [37.804861, -1.797361], [37.804861, -1.797083], [37.805139, -1.797083], [37.805139, -1.796806], [37.805694, -1.796806], [37.805694, -1.794306], [37.805139, -1.794306], [37.805139, -1.794028], [37.804861, -1.794028], [37.804861, -1.79375], [37.804306, -1.79375], [37.804306, -1.792917], [37.804583, -1.792917], [37.804583, -1.792083], [37.804861, -1.792083], [37.804861, -1.791806], [37.805417, -1.791806], [37.805417, -1.790694], [37.805139, -1.790694], [37.805139, -1.790417], [37.805417, -1.790417], [37.805417, -1.790139], [37.806528, -1.790139], [37.806528, -1.789861], [37.806806, -1.789861], [37.806806, -1.789583], [37.807361, -1.789583], [37.807361, -1.789306], [37.807639, -1.789306], [37.807639, -1.78875], [37.807917, -1.78875], [37.807917, -1.788194], [37.807639, -1.788194], [37.807639, -1.787917], [37.807361, -1.787917], [37.807361, -1.787639], [37.807083, -1.787639], [37.807083, -1.786806], [37.806806, -1.786806], [37.806806, -1.785417], [37.807361, -1.785417], [37.807361, -1.785139], [37.807083, -1.785139], [37.807083, -1.784861], [37.806528, -1.784861], [37.806528, -1.784583], [37.805417, -1.784583], [37.805417, -1.784861], [37.805139, -1.784861], [37.805139, -1.785972], [37.804861, -1.785972], [37.804861, -1.788194], [37.804583, -1.788194], [37.804583, -1.789028], [37.804306, -1.789028], [37.804306, -1.789306], [37.804028, -1.789306], [37.804028, -1.789861], [37.803472, -1.789861], [37.803472, -1.789583], [37.802917, -1.789583], [37.802917, -1.789306], [37.802639, -1.789306], [37.802639, -1.788472], [37.802083, -1.788472], [37.802083, -1.788194], [37.800972, -1.788194], [37.800972, -1.787917], [37.800417, -1.787917], [37.800417, -1.788194], [37.800139, -1.788194], [37.800139, -1.78875], [37.799861, -1.78875], [37.799861, -1.789583], [37.799583, -1.789583], [37.799583, -1.790139], [37.799306, -1.790139], [37.799306, -1.789583], [37.799028, -1.789583], [37.799028, -1.789306], [37.79875, -1.789306], [37.79875, -1.789028], [37.797639, -1.789028], [37.797639, -1.78875], [37.797361, -1.78875], [37.797361, -1.788472], [37.797639, -1.788472], [37.797639, -1.788194], [37.797917, -1.788194], [37.797917, -1.787639], [37.797639, -1.787639], [37.797639, -1.787361], [37.797361, -1.787361], [37.797361, -1.787083], [37.796528, -1.787083], [37.796528, -1.787361], [37.79625, -1.787361], [37.79625, -1.787639], [37.795972, -1.787639], [37.795972, -1.787917], [37.794861, -1.787917], [37.794861, -1.787639], [37.794583, -1.787639], [37.794583, -1.788194], [37.794306, -1.788194], [37.794306, -1.78625], [37.794583, -1.78625], [37.794583, -1.785417], [37.794861, -1.785417], [37.794861, -1.785139], [37.795417, -1.785139], [37.795417, -1.784861], [37.79625, -1.784861], [37.79625, -1.784583], [37.796806, -1.784583], [37.796806, -1.784306], [37.797361, -1.784306], [37.797361, -1.784028], [37.798472, -1.784028], [37.798472, -1.78375], [37.799028, -1.78375], [37.799028, -1.783472], [37.799306, -1.783472], [37.799306, -1.782083], [37.799028, -1.782083], [37.799028, -1.781528], [37.79875, -1.781528], [37.79875, -1.779306], [37.797917, -1.779306], [37.797917, -1.779583], [37.797639, -1.779583], [37.797639, -1.779861], [37.796806, -1.779861], [37.796806, -1.779583], [37.796528, -1.779583], [37.796528, -1.779306], [37.79625, -1.779306], [37.79625, -1.779028], [37.794861, -1.779028], [37.794861, -1.78125], [37.795139, -1.78125], [37.795139, -1.781528], [37.794861, -1.781528], [37.794861, -1.781806], [37.795139, -1.781806], [37.795139, -1.782083], [37.794861, -1.782083], [37.794861, -1.782639], [37.794583, -1.782639], [37.794583, -1.783472], [37.794306, -1.783472], [37.794306, -1.78375], [37.792361, -1.78375], [37.792361, -1.783472], [37.791806, -1.783472], [37.791806, -1.782917], [37.791528, -1.782917], [37.791528, -1.782639], [37.79125, -1.782639], [37.79125, -1.782361], [37.790417, -1.782361], [37.790417, -1.781806], [37.790139, -1.781806], [37.790139, -1.781528], [37.789861, -1.781528], [37.789861, -1.78125], [37.789583, -1.78125], [37.789583, -1.780694], [37.789306, -1.780694], [37.789306, -1.780417], [37.789028, -1.780417], [37.789028, -1.780139], [37.788194, -1.780139], [37.788194, -1.779861], [37.787639, -1.779861], [37.787639, -1.779306], [37.787083, -1.779306], [37.787083, -1.779028], [37.785694, -1.779028], [37.785694, -1.779306], [37.785417, -1.779306], [37.785417, -1.779861], [37.784306, -1.779861], [37.784306, -1.780972], [37.784583, -1.780972], [37.784583, -1.781806], [37.784861, -1.781806], [37.784861, -1.782639], [37.784583, -1.782639], [37.784583, -1.782361], [37.784306, -1.782361], [37.784306, -1.782083], [37.784028, -1.782083], [37.784028, -1.781806], [37.78375, -1.781806], [37.78375, -1.781528], [37.783472, -1.781528], [37.783472, -1.78125], [37.783194, -1.78125], [37.783194, -1.780972], [37.782917, -1.780972], [37.782917, -1.780694], [37.782917, -1.780417], [37.782639, -1.780417], [37.782639, -1.780139], [37.782361, -1.780139], [37.782361, -1.779861], [37.782083, -1.779861], [37.782083, -1.780417], [37.781528, -1.780417], [37.781528, -1.780139], [37.78125, -1.780139], [37.780417, -1.780139], [37.780417, -1.780417], [37.780139, -1.780417], [37.780139, -1.780694], [37.779306, -1.780694], [37.779306, -1.78125], [37.779028, -1.78125], [37.779028, -1.781806], [37.777917, -1.781806], [37.777917, -1.782083], [37.777639, -1.782083], [37.777639, -1.782361], [37.777361, -1.782361], [37.777361, -1.782917], [37.777083, -1.782917], [37.777083, -1.783194], [37.776806, -1.783194], [37.776806, -1.782361], [37.776528, -1.782361], [37.776528, -1.781806], [37.77625, -1.781806], [37.77625, -1.781528], [37.775972, -1.781528], [37.775972, -1.78125], [37.775417, -1.78125], [37.775417, -1.781528], [37.775139, -1.781528], [37.775139, -1.782083], [37.774306, -1.782083], [37.774306, -1.781806], [37.773194, -1.781806], [37.773194, -1.782083], [37.772917, -1.782083], [37.772917, -1.782361], [37.772361, -1.782361], [37.772361, -1.781806], [37.772639, -1.781806], [37.772639, -1.781528], [37.772917, -1.781528], [37.772917, -1.780417], [37.77375, -1.780417], [37.77375, -1.780139], [37.774028, -1.780139], [37.774028, -1.779861], [37.774306, -1.779861], [37.774306, -1.779583], [37.774583, -1.779583], [37.774583, -1.779028], [37.774306, -1.779028], [37.774306, -1.77875], [37.774028, -1.77875], [37.774028, -1.778194], [37.77375, -1.778194], [37.77375, -1.777639], [37.773472, -1.777639], [37.773472, -1.777361], [37.773194, -1.777361], [37.773194, -1.777083], [37.772917, -1.777083], [37.772917, -1.776806], [37.772639, -1.776806], [37.772639, -1.776528], [37.772361, -1.776528], [37.772361, -1.77625], [37.772083, -1.77625], [37.772083, -1.775972], [37.771806, -1.775972], [37.771806, -1.775417], [37.771528, -1.775417], [37.771528, -1.775139], [37.77125, -1.775139], [37.77125, -1.774583], [37.770694, -1.774583], [37.770694, -1.774306], [37.770417, -1.774306], [37.770417, -1.774583], [37.769583, -1.774583], [37.769583, -1.774861], [37.768194, -1.774861], [37.768194, -1.775139], [37.767639, -1.775139], [37.767361, -1.775139], [37.767361, -1.775417], [37.767083, -1.775417], [37.767083, -1.775694], [37.766806, -1.775694], [37.766806, -1.775972], [37.766528, -1.775972], [37.766528, -1.77625], [37.765417, -1.77625], [37.765417, -1.775417], [37.766528, -1.775417], [37.766528, -1.775139], [37.766806, -1.775139], [37.766806, -1.774861], [37.767083, -1.774861], [37.767083, -1.774306], [37.767361, -1.774306], [37.767361, -1.774028], [37.767639, -1.774028], [37.767639, -1.77375], [37.767917, -1.77375], [37.767917, -1.773472], [37.767917, -1.772917], [37.768194, -1.772917], [37.768194, -1.772361], [37.768472, -1.772361], [37.768472, -1.772083], [37.76875, -1.772083], [37.76875, -1.771806], [37.769028, -1.771806], [37.769028, -1.770694], [37.76875, -1.770694], [37.76875, -1.770139], [37.769028, -1.770139], [37.769028, -1.769861], [37.769306, -1.769861], [37.769306, -1.770139], [37.770694, -1.770139], [37.770694, -1.769861], [37.771806, -1.769861], [37.771806, -1.770139], [37.772083, -1.770139], [37.772083, -1.770417], [37.772361, -1.770417], [37.772361, -1.770694], [37.772639, -1.770694], [37.772639, -1.770972], [37.772917, -1.770972], [37.772917, -1.770694], [37.773194, -1.770694], [37.773194, -1.770972], [37.773472, -1.770972], [37.773472, -1.77125], [37.77375, -1.77125], [37.77375, -1.771806], [37.774028, -1.771806], [37.774028, -1.772639], [37.774306, -1.772639], [37.774306, -1.772917], [37.774583, -1.772917], [37.774583, -1.773472], [37.774861, -1.773472], [37.774861, -1.774028], [37.775139, -1.774028], [37.775139, -1.774306], [37.775417, -1.774306], [37.775417, -1.774583], [37.775972, -1.774583], [37.775972, -1.774861], [37.77625, -1.774861], [37.77625, -1.775139], [37.776528, -1.775139], [37.776528, -1.775417], [37.777083, -1.775417], [37.777083, -1.775694], [37.777639, -1.775694], [37.777639, -1.775139], [37.777361, -1.775139], [37.777361, -1.773472], [37.777639, -1.773472], [37.777639, -1.77375], [37.778194, -1.77375], [37.778194, -1.774028], [37.779583, -1.774028], [37.779583, -1.773194], [37.779861, -1.773194], [37.779861, -1.772917], [37.779861, -1.772639], [37.779583, -1.772639], [37.779583, -1.772083], [37.779583, -1.771806], [37.779583, -1.77125], [37.779306, -1.77125], [37.779306, -1.770694], [37.779028, -1.770694], [37.779028, -1.770139], [37.77875, -1.770139], [37.77875, -1.769583], [37.779028, -1.769583], [37.779028, -1.769861], [37.779306, -1.769861], [37.779306, -1.770139], [37.779583, -1.770139], [37.779583, -1.770417], [37.779861, -1.770417], [37.779861, -1.770972], [37.780417, -1.770972], [37.780417, -1.77125], [37.780694, -1.77125], [37.780694, -1.771528], [37.780972, -1.771528], [37.780972, -1.771806], [37.78125, -1.771806], [37.78125, -1.772083], [37.781806, -1.772083], [37.781806, -1.772361], [37.782361, -1.772361], [37.782361, -1.772083], [37.782639, -1.772083], [37.782639, -1.771528], [37.782917, -1.771528], [37.782917, -1.770417], [37.783194, -1.770417], [37.783194, -1.770694], [37.784306, -1.770694], [37.784306, -1.770972], [37.784583, -1.770972], [37.785139, -1.770972], [37.785139, -1.770694], [37.785694, -1.770694], [37.785694, -1.770417], [37.785972, -1.770417], [37.785972, -1.770139], [37.78625, -1.770139], [37.78625, -1.769861], [37.786528, -1.769861], [37.786806, -1.769861], [37.786806, -1.769306], [37.787083, -1.769306], [37.787083, -1.768472], [37.786806, -1.768472], [37.786806, -1.767361], [37.786528, -1.767361], [37.786528, -1.767083], [37.78625, -1.767083], [37.78625, -1.766806], [37.785972, -1.766806], [37.785972, -1.76625], [37.78625, -1.76625], [37.78625, -1.765694], [37.786528, -1.765694], [37.786528, -1.765139], [37.786806, -1.765139], [37.786806, -1.764583], [37.78625, -1.764583], [37.78625, -1.763472], [37.785972, -1.763472], [37.785972, -1.763194], [37.785417, -1.763194], [37.785417, -1.762917], [37.785139, -1.762917], [37.785139, -1.762639], [37.784861, -1.762639], [37.784861, -1.761806], [37.784306, -1.761806], [37.784306, -1.76125], [37.784583, -1.76125], [37.784583, -1.760972], [37.784028, -1.760972], [37.784028, -1.760417], [37.78375, -1.760417], [37.78375, -1.759583], [37.782917, -1.759583], [37.782917, -1.759306], [37.783194, -1.759306], [37.783194, -1.75875], [37.782639, -1.75875], [37.782639, -1.758472], [37.782361, -1.758472], [37.782361, -1.757639], [37.782083, -1.757639], [37.782083, -1.757361], [37.782361, -1.757361], [37.782361, -1.757083], [37.782083, -1.757083], [37.782083, -1.755417], [37.781528, -1.755417], [37.781528, -1.755139], [37.780417, -1.755139], [37.780417, -1.754583], [37.780694, -1.754583], [37.780694, -1.754028], [37.780972, -1.754028], [37.780972, -1.75375], [37.780694, -1.75375], [37.780694, -1.753194], [37.780417, -1.753194], [37.780417, -1.752639], [37.780139, -1.752639], [37.780139, -1.752361], [37.779861, -1.752361], [37.779861, -1.752083], [37.779583, -1.752083], [37.779583, -1.751806], [37.779306, -1.751806], [37.779306, -1.75125], [37.779028, -1.75125], [37.77875, -1.75125], [37.77875, -1.750139], [37.778472, -1.750139], [37.778472, -1.749861], [37.778194, -1.749861], [37.778194, -1.749583], [37.777917, -1.749583], [37.777917, -1.749306], [37.777361, -1.749306], [37.777361, -1.749028], [37.777083, -1.749028], [37.777083, -1.748472], [37.777361, -1.748472], [37.777361, -1.74875], [37.777917, -1.74875], [37.777917, -1.749028], [37.778194, -1.749028], [37.778194, -1.749306], [37.77875, -1.749306], [37.77875, -1.749583], [37.779028, -1.749583], [37.779028, -1.749861], [37.779583, -1.749861], [37.779583, -1.750139], [37.779861, -1.750139], [37.779861, -1.750417], [37.780417, -1.750417], [37.780417, -1.750139], [37.780694, -1.750139], [37.780694, -1.750417], [37.78125, -1.750417], [37.78125, -1.74875], [37.780972, -1.74875], [37.780972, -1.748194], [37.78125, -1.748194], [37.78125, -1.748472], [37.782361, -1.748472], [37.782361, -1.748194], [37.782639, -1.748194], [37.782639, -1.747639], [37.782361, -1.747639], [37.782361, -1.747361], [37.782639, -1.747361], [37.782639, -1.747083], [37.782917, -1.747083], [37.782917, -1.747361], [37.783472, -1.747361], [37.783472, -1.749028], [37.783194, -1.749028], [37.783194, -1.749583], [37.783472, -1.749583], [37.783472, -1.749861], [37.783194, -1.749861], [37.783194, -1.750139], [37.783472, -1.750139], [37.783472, -1.750694], [37.783194, -1.750694], [37.783194, -1.75125], [37.783472, -1.75125], [37.783472, -1.751528], [37.784028, -1.751528], [37.784028, -1.751806], [37.784306, -1.751806], [37.784306, -1.750972], [37.784861, -1.750972], [37.784861, -1.750694], [37.785139, -1.750694], [37.785139, -1.750417], [37.785417, -1.750417], [37.785417, -1.751806], [37.785139, -1.751806], [37.785139, -1.752083], [37.784583, -1.752083], [37.784583, -1.752361], [37.784306, -1.752361], [37.784306, -1.752639], [37.784306, -1.752917], [37.784583, -1.752917], [37.784861, -1.752917], [37.784861, -1.753194], [37.785139, -1.753194], [37.785139, -1.75375], [37.785417, -1.75375], [37.785417, -1.754028], [37.785694, -1.754028], [37.785694, -1.754583], [37.786528, -1.754583], [37.786528, -1.754306], [37.787083, -1.754306], [37.787083, -1.754028], [37.787361, -1.754028], [37.787361, -1.753472], [37.787639, -1.753472], [37.787639, -1.752917], [37.787917, -1.752917], [37.787917, -1.752083], [37.788194, -1.752083], [37.788194, -1.752639], [37.78875, -1.752639], [37.78875, -1.752917], [37.789028, -1.752917], [37.789028, -1.753194], [37.78875, -1.753194], [37.78875, -1.75375], [37.789028, -1.75375], [37.789028, -1.754306], [37.790139, -1.754306], [37.790139, -1.754583], [37.789861, -1.754583], [37.789861, -1.755694], [37.790139, -1.755694], [37.790139, -1.755972], [37.790694, -1.755972], [37.790694, -1.75625], [37.79125, -1.75625], [37.79125, -1.755972], [37.791528, -1.755972], [37.791528, -1.756528], [37.791806, -1.756528], [37.791806, -1.756806], [37.792083, -1.756806], [37.792083, -1.758194], [37.792361, -1.758194], [37.792361, -1.758472], [37.792639, -1.758472], [37.792639, -1.75875], [37.792917, -1.75875], [37.792917, -1.759028], [37.794028, -1.759028], [37.794028, -1.759306], [37.795139, -1.759306], [37.795139, -1.759583], [37.794861, -1.759583], [37.794861, -1.760139], [37.795139, -1.760139], [37.795139, -1.760694], [37.795417, -1.760694], [37.795417, -1.761806], [37.795694, -1.761806], [37.795694, -1.762083], [37.795972, -1.762083], [37.795972, -1.761806], [37.79625, -1.761806], [37.79625, -1.761528], [37.796528, -1.761528], [37.796528, -1.759583], [37.796528, -1.759028], [37.79625, -1.759028], [37.79625, -1.758194], [37.796806, -1.758194], [37.796806, -1.758472], [37.797083, -1.758472], [37.797083, -1.75875], [37.797639, -1.75875], [37.797639, -1.759028], [37.797917, -1.759028], [37.797917, -1.758194], [37.798472, -1.758194], [37.798472, -1.75875], [37.79875, -1.75875], [37.79875, -1.758194], [37.799028, -1.758194], [37.799028, -1.757917], [37.799306, -1.757917], [37.799306, -1.757639], [37.799583, -1.757639], [37.799583, -1.757083], [37.799861, -1.757083], [37.799861, -1.755972], [37.800417, -1.755972], [37.800417, -1.756528], [37.800694, -1.756528], [37.800694, -1.756806], [37.800972, -1.756806], [37.800972, -1.757361], [37.800972, -1.757639], [37.80125, -1.757639], [37.80125, -1.75875], [37.801528, -1.75875], [37.801806, -1.75875], [37.802083, -1.75875], [37.802361, -1.75875], [37.802361, -1.759028], [37.802639, -1.759028], [37.802639, -1.759306], [37.802639, -1.759583], [37.802917, -1.759583], [37.802917, -1.759861], [37.802917, -1.760139], [37.803194, -1.760139], [37.803194, -1.760694], [37.803194, -1.760972], [37.803472, -1.760972], [37.804028, -1.760972], [37.804028, -1.76125], [37.804306, -1.76125], [37.805694, -1.76125], [37.805694, -1.761528], [37.805972, -1.761528], [37.805972, -1.761806], [37.80625, -1.761806], [37.80625, -1.762083], [37.806806, -1.762083], [37.807083, -1.762083], [37.807083, -1.762361], [37.807083, -1.762917], [37.807361, -1.762917], [37.807361, -1.763194], [37.807639, -1.763194], [37.808194, -1.763194], [37.808194, -1.76375], [37.807917, -1.76375], [37.807917, -1.764028], [37.808194, -1.764028], [37.808194, -1.764306], [37.808472, -1.764306], [37.808472, -1.764583], [37.808194, -1.764583], [37.808194, -1.765139], [37.808472, -1.765139], [37.808472, -1.765417], [37.80875, -1.765417], [37.80875, -1.765694], [37.809028, -1.765694], [37.809028, -1.76625], [37.80875, -1.76625], [37.80875, -1.766528], [37.809028, -1.766528], [37.809028, -1.766806], [37.809306, -1.766806], [37.809306, -1.767639], [37.809028, -1.767639], [37.809028, -1.767917], [37.80875, -1.767917], [37.80875, -1.768472], [37.808472, -1.768472], [37.808472, -1.76875], [37.80875, -1.76875], [37.80875, -1.770972], [37.809028, -1.770972], [37.809028, -1.77125], [37.809306, -1.77125], [37.809306, -1.772083], [37.809583, -1.772083], [37.809583, -1.772361], [37.809861, -1.772361], [37.809861, -1.773194], [37.809861, -1.773472], [37.810139, -1.773472], [37.810139, -1.774583], [37.810417, -1.774583], [37.810417, -1.774306], [37.810972, -1.774306], [37.810972, -1.774028], [37.811528, -1.774028], [37.811528, -1.773472], [37.812639, -1.773472], [37.812639, -1.77375], [37.81375, -1.77375], [37.81375, -1.774028], [37.813472, -1.774028], [37.813472, -1.774583], [37.813194, -1.774583], [37.813194, -1.774861], [37.813472, -1.774861], [37.813472, -1.775139], [37.813194, -1.775139], [37.813194, -1.775417], [37.812917, -1.775417], [37.812917, -1.775694], [37.812639, -1.775694], [37.812639, -1.77625], [37.815417, -1.77625], [37.815417, -1.776528], [37.815694, -1.776528], [37.815694, -1.776806], [37.815972, -1.776806], [37.815972, -1.777083], [37.815694, -1.777083], [37.815694, -1.777361], [37.815972, -1.777361], [37.815972, -1.777639], [37.81625, -1.777639], [37.81625, -1.777917], [37.816528, -1.777917], [37.816528, -1.778194], [37.816806, -1.778194], [37.816806, -1.778472], [37.817083, -1.778472], [37.817083, -1.77875], [37.817361, -1.77875], [37.817361, -1.779028], [37.818194, -1.779028], [37.818194, -1.779306], [37.818472, -1.779306], [37.818472, -1.780139], [37.81875, -1.780139], [37.81875, -1.780417], [37.819306, -1.780417], [37.819306, -1.780139], [37.819583, -1.780139], [37.819583, -1.779861], [37.819861, -1.779861], [37.819861, -1.779583], [37.820417, -1.779583], [37.820417, -1.779306], [37.821528, -1.779306], [37.821528, -1.779028], [37.821806, -1.779028], [37.821806, -1.77875], [37.822083, -1.77875], [37.822083, -1.778472], [37.823472, -1.778472], [37.823472, -1.777917], [37.823194, -1.777917], [37.823194, -1.777639], [37.821806, -1.777639], [37.821806, -1.777361], [37.821528, -1.777361], [37.821528, -1.777083], [37.82125, -1.777083], [37.82125, -1.776528], [37.820972, -1.776528], [37.820972, -1.775972], [37.820694, -1.775972], [37.820694, -1.775694], [37.820417, -1.775694], [37.820417, -1.775417], [37.820139, -1.775417], [37.820139, -1.775139], [37.819861, -1.775139], [37.819861, -1.775417], [37.819583, -1.775417], [37.819583, -1.774861], [37.819306, -1.774861], [37.819306, -1.774583], [37.819028, -1.774583], [37.819028, -1.77375], [37.819306, -1.77375], [37.819306, -1.772639], [37.819028, -1.772639], [37.819028, -1.772361], [37.81875, -1.772361], [37.81875, -1.772083], [37.817639, -1.772083], [37.817639, -1.771806], [37.817083, -1.771806], [37.817083, -1.770694], [37.816806, -1.770694], [37.816806, -1.770139], [37.815972, -1.770139], [37.815972, -1.769861], [37.815694, -1.769861], [37.815694, -1.770139], [37.815417, -1.770139], [37.815417, -1.769861], [37.815139, -1.769861], [37.815139, -1.769028], [37.814861, -1.769028], [37.814861, -1.768472], [37.814306, -1.768472], [37.814306, -1.768194], [37.81375, -1.768194], [37.81375, -1.767361], [37.813472, -1.767361], [37.813472, -1.767083], [37.812917, -1.767083], [37.812917, -1.766806], [37.812639, -1.766806], [37.812639, -1.766528], [37.812361, -1.766528], [37.812361, -1.76625], [37.811806, -1.76625], [37.811806, -1.765972], [37.811528, -1.765972], [37.811528, -1.765417], [37.81125, -1.765417], [37.81125, -1.764583], [37.811528, -1.764583], [37.811528, -1.764861], [37.81375, -1.764861], [37.81375, -1.765139], [37.814028, -1.765139], [37.814028, -1.764861], [37.814306, -1.764861], [37.814306, -1.765139], [37.815694, -1.765139], [37.815694, -1.764583], [37.815417, -1.764583], [37.815417, -1.764028], [37.815139, -1.764028], [37.815139, -1.76375], [37.814861, -1.76375], [37.814861, -1.763472], [37.814583, -1.763472], [37.814583, -1.763194], [37.814306, -1.763194], [37.814306, -1.762639], [37.814028, -1.762639], [37.814028, -1.762083], [37.813472, -1.762083], [37.813472, -1.76125], [37.81375, -1.76125], [37.81375, -1.761528], [37.814583, -1.761528], [37.814583, -1.760417], [37.814306, -1.760417], [37.814306, -1.759583], [37.814028, -1.759583], [37.814028, -1.759028], [37.81375, -1.759028], [37.81375, -1.75875], [37.813472, -1.75875], [37.813472, -1.758472], [37.813194, -1.758472], [37.813194, -1.758194], [37.812917, -1.758194], [37.812917, -1.757917], [37.812361, -1.757917], [37.812361, -1.757639], [37.811528, -1.757639], [37.811528, -1.757083], [37.811806, -1.757083], [37.811806, -1.756806], [37.811806, -1.755694], [37.81125, -1.755694], [37.81125, -1.755417], [37.810972, -1.755417], [37.810972, -1.755139], [37.810139, -1.755139], [37.810139, -1.755417], [37.809861, -1.755417], [37.809861, -1.754861], [37.809583, -1.754861], [37.809583, -1.754583], [37.809306, -1.754583], [37.809306, -1.754306], [37.80875, -1.754306], [37.80875, -1.754028], [37.808472, -1.754028], [37.808472, -1.75375], [37.807917, -1.75375], [37.807917, -1.753472], [37.807639, -1.753472], [37.807639, -1.752917], [37.807361, -1.752917], [37.807361, -1.752361], [37.807083, -1.752361], [37.807083, -1.752083], [37.806806, -1.752083], [37.806806, -1.751806], [37.80625, -1.751806], [37.80625, -1.751528], [37.805972, -1.751528], [37.805972, -1.75125], [37.805694, -1.75125], [37.805694, -1.750694], [37.805417, -1.750694], [37.805417, -1.750417], [37.805139, -1.750417], [37.805139, -1.750139], [37.805972, -1.750139], [37.805972, -1.750417], [37.80625, -1.750417], [37.80625, -1.750694], [37.807083, -1.750694], [37.807083, -1.750972], [37.807639, -1.750972], [37.807639, -1.75125], [37.808194, -1.75125], [37.808194, -1.751528], [37.809861, -1.751528], [37.809861, -1.750139], [37.809583, -1.750139], [37.809583, -1.749861], [37.809306, -1.749861], [37.809306, -1.749306], [37.80875, -1.749306], [37.80875, -1.749028], [37.808472, -1.749028], [37.808472, -1.748472], [37.808194, -1.748472], [37.808194, -1.747917], [37.807917, -1.747917], [37.807917, -1.747361], [37.808194, -1.747361], [37.808194, -1.747639], [37.808472, -1.747639], [37.808472, -1.748194], [37.80875, -1.748194], [37.80875, -1.748472], [37.809306, -1.748472], [37.809306, -1.74875], [37.810139, -1.74875], [37.810139, -1.749028], [37.810972, -1.749028], [37.810972, -1.749306], [37.81125, -1.749306], [37.81125, -1.749583], [37.812639, -1.749583], [37.812639, -1.750417], [37.812917, -1.750417], [37.812917, -1.750972], [37.813194, -1.750972], [37.813194, -1.75125], [37.813472, -1.75125], [37.813472, -1.751528], [37.81375, -1.751528], [37.81375, -1.751806], [37.814028, -1.751806], [37.814028, -1.752083], [37.814306, -1.752083], [37.814306, -1.752639], [37.814861, -1.752639], [37.814861, -1.752917], [37.815139, -1.752917], [37.815139, -1.753194], [37.815694, -1.753194], [37.815694, -1.753472], [37.815972, -1.753472], [37.815972, -1.753194], [37.816528, -1.753194], [37.816528, -1.752639], [37.816806, -1.752639], [37.816806, -1.752083], [37.817083, -1.752083], [37.817083, -1.75125], [37.817361, -1.75125], [37.817361, -1.750417], [37.817083, -1.750417], [37.817083, -1.749861], [37.816806, -1.749861], [37.816806, -1.749583], [37.816528, -1.749583], [37.816528, -1.749306], [37.81625, -1.749306], [37.81625, -1.749028], [37.815972, -1.749028], [37.815972, -1.74875], [37.815694, -1.74875], [37.815694, -1.748194], [37.815417, -1.748194], [37.815417, -1.747917], [37.815139, -1.747917], [37.815139, -1.747639], [37.815694, -1.747639], [37.815694, -1.747917], [37.815972, -1.747917], [37.815972, -1.748194], [37.816528, -1.748194], [37.816528, -1.748472], [37.816806, -1.748472], [37.816806, -1.74875], [37.817917, -1.74875], [37.817917, -1.749306], [37.818194, -1.749306], [37.818194, -1.749583], [37.818472, -1.749583], [37.818472, -1.749861], [37.819028, -1.749861], [37.819028, -1.75125], [37.819306, -1.75125], [37.819306, -1.751806], [37.819583, -1.751806], [37.819583, -1.752639], [37.819861, -1.752639], [37.819861, -1.75375], [37.820139, -1.75375], [37.820139, -1.755139], [37.820417, -1.755139], [37.820417, -1.755972], [37.820694, -1.755972], [37.820694, -1.755694], [37.820972, -1.755694], [37.820972, -1.755417], [37.82125, -1.755417], [37.82125, -1.755139], [37.821806, -1.755139], [37.821806, -1.754861], [37.822083, -1.754861], [37.822083, -1.754306], [37.822639, -1.754306], [37.822639, -1.75375], [37.822917, -1.75375], [37.822917, -1.753194], [37.823194, -1.753194], [37.823194, -1.751806], [37.82375, -1.751806], [37.82375, -1.753472], [37.824306, -1.753472], [37.824306, -1.754861], [37.824583, -1.754861], [37.824583, -1.754583], [37.825139, -1.754583], [37.825139, -1.754306], [37.825694, -1.754306], [37.825694, -1.755417], [37.825972, -1.755417], [37.825972, -1.755694], [37.82625, -1.755694], [37.82625, -1.75625], [37.825972, -1.75625], [37.825972, -1.756528], [37.825694, -1.756528], [37.825694, -1.758194], [37.825972, -1.758194], [37.825972, -1.758472], [37.826528, -1.758472], [37.826528, -1.75875], [37.827083, -1.75875], [37.827083, -1.759306], [37.826806, -1.759306], [37.826806, -1.759861], [37.827083, -1.759861], [37.827083, -1.760139], [37.826806, -1.760139], [37.826806, -1.761528], [37.827083, -1.761528], [37.827083, -1.762083], [37.827361, -1.762083], [37.827361, -1.762361], [37.827639, -1.762361], [37.827639, -1.762639], [37.827917, -1.762639], [37.827917, -1.762361], [37.829028, -1.762361], [37.829028, -1.761806], [37.829306, -1.761806], [37.829306, -1.762083], [37.829583, -1.762083], [37.829583, -1.762361], [37.829861, -1.762361], [37.829861, -1.762639], [37.830417, -1.762639], [37.830417, -1.762917], [37.830972, -1.762917], [37.830972, -1.762639], [37.831806, -1.762639], [37.831806, -1.760972], [37.831528, -1.760972], [37.831528, -1.760417], [37.83125, -1.760417], [37.83125, -1.760139], [37.830972, -1.760139], [37.830972, -1.759583], [37.83125, -1.759583], [37.83125, -1.759306], [37.831528, -1.759306], [37.831528, -1.759028], [37.83125, -1.759028], [37.83125, -1.758472], [37.831528, -1.758472], [37.831528, -1.757917], [37.83125, -1.757917], [37.83125, -1.757639], [37.831806, -1.757639], [37.831806, -1.757917], [37.832917, -1.757917], [37.832917, -1.757639], [37.833194, -1.757639], [37.833194, -1.756528], [37.833472, -1.756528], [37.833472, -1.756806], [37.834583, -1.756806], [37.834583, -1.756528], [37.835139, -1.756528], [37.835139, -1.755972], [37.835694, -1.755972], [37.835694, -1.75625], [37.835972, -1.75625], [37.835972, -1.756528], [37.83625, -1.756528], [37.83625, -1.757083], [37.836528, -1.757083], [37.836528, -1.757361], [37.836806, -1.757361], [37.836806, -1.759028], [37.837083, -1.759028], [37.837083, -1.759861], [37.837361, -1.759861], [37.837361, -1.760139], [37.838194, -1.760139], [37.838194, -1.760417], [37.838472, -1.760417], [37.838472, -1.760694], [37.83875, -1.760694], [37.83875, -1.760972], [37.839028, -1.760972], [37.839028, -1.761806], [37.839306, -1.761806], [37.839306, -1.762083], [37.839861, -1.762083], [37.839861, -1.761806], [37.840139, -1.761806], [37.840139, -1.760972], [37.840417, -1.760972], [37.840417, -1.759861], [37.841806, -1.759861], [37.841806, -1.759583], [37.841528, -1.759583], [37.841528, -1.75875], [37.84125, -1.75875], [37.84125, -1.757917], [37.840972, -1.757917], [37.840972, -1.757361], [37.84125, -1.757361], [37.84125, -1.757639], [37.841528, -1.757639], [37.841528, -1.757917], [37.842083, -1.757917], [37.842083, -1.758194], [37.842361, -1.758194], [37.842361, -1.758472], [37.844028, -1.758472], [37.844028, -1.758194], [37.844306, -1.758194], [37.844306, -1.757639], [37.844583, -1.757639], [37.844583, -1.756806], [37.844861, -1.756806], [37.844861, -1.755694], [37.844583, -1.755694], [37.844583, -1.755139], [37.844861, -1.755139], [37.844861, -1.755417], [37.845139, -1.755417], [37.845139, -1.755694], [37.845417, -1.755694], [37.845417, -1.755972], [37.845694, -1.755972], [37.845694, -1.756528], [37.845972, -1.756528], [37.845972, -1.757639], [37.84625, -1.757639], [37.84625, -1.758194], [37.846806, -1.758194], [37.846806, -1.759028], [37.846528, -1.759028], [37.846528, -1.759306], [37.84625, -1.759306], [37.84625, -1.759861], [37.84625, -1.760417], [37.84625, -1.760694], [37.846528, -1.760694], [37.846528, -1.76125], [37.846806, -1.76125], [37.846806, -1.761528], [37.847083, -1.761528], [37.847083, -1.761806], [37.847361, -1.761806], [37.848194, -1.761806], [37.848194, -1.762361], [37.848472, -1.762361], [37.848472, -1.762639], [37.84875, -1.762639], [37.84875, -1.763194], [37.849028, -1.763194], [37.849028, -1.763472], [37.849306, -1.763472], [37.849306, -1.76375], [37.850972, -1.76375], [37.850972, -1.762917], [37.85125, -1.762917], [37.85125, -1.76125], [37.851528, -1.76125], [37.851528, -1.760694], [37.851806, -1.760694], [37.851806, -1.760417], [37.852361, -1.760417], [37.852361, -1.760694], [37.852639, -1.760694], [37.852639, -1.760417], [37.852639, -1.760139], [37.852639, -1.759583], [37.852361, -1.759583], [37.852361, -1.758472], [37.851528, -1.758472], [37.851528, -1.758194], [37.85125, -1.758194], [37.85125, -1.757639], [37.850972, -1.757639], [37.850972, -1.757361], [37.850694, -1.757361], [37.850694, -1.756806], [37.85125, -1.756806], [37.85125, -1.757083], [37.852639, -1.757083], [37.852639, -1.756806], [37.853194, -1.756806], [37.853194, -1.756528], [37.853472, -1.756528], [37.853472, -1.755972], [37.85375, -1.755972], [37.85375, -1.755417], [37.854028, -1.755417], [37.854028, -1.754861], [37.85375, -1.754861], [37.85375, -1.754583], [37.853472, -1.754583], [37.853472, -1.75375], [37.853194, -1.75375], [37.853194, -1.753472], [37.852361, -1.753472], [37.852361, -1.752083], [37.852083, -1.752083], [37.852083, -1.751806], [37.851806, -1.751806], [37.851806, -1.751528], [37.85125, -1.751528], [37.85125, -1.75125], [37.850972, -1.75125], [37.850972, -1.750694], [37.851528, -1.750694], [37.851528, -1.750139], [37.851806, -1.750139], [37.851806, -1.749861], [37.852361, -1.749861], [37.852361, -1.750139], [37.852639, -1.750139], [37.852639, -1.749861], [37.852917, -1.749861], [37.852917, -1.749583], [37.853194, -1.749583], [37.853194, -1.748472], [37.852917, -1.748472], [37.852917, -1.747917], [37.853194, -1.747917], [37.853194, -1.748194], [37.85375, -1.748194], [37.85375, -1.747083], [37.853472, -1.747083], [37.853472, -1.746806], [37.853194, -1.746806], [37.853194, -1.746528], [37.852917, -1.746528], [37.852917, -1.74625], [37.852639, -1.74625], [37.852639, -1.745972], [37.852361, -1.745972], [37.852361, -1.745139], [37.852639, -1.745139], [37.852639, -1.744306], [37.852361, -1.744306], [37.852361, -1.743472], [37.851528, -1.743472], [37.851528, -1.743194], [37.85125, -1.743194], [37.85125, -1.742917], [37.851528, -1.742917], [37.851528, -1.742361], [37.851806, -1.742361], [37.851806, -1.742083], [37.852083, -1.742083], [37.852083, -1.74125], [37.851806, -1.74125], [37.851806, -1.740694], [37.85125, -1.740694], [37.85125, -1.740417], [37.850972, -1.740417], [37.850972, -1.740139], [37.850417, -1.740139], [37.850417, -1.739861], [37.849583, -1.739861], [37.849583, -1.739583], [37.84875, -1.739583], [37.84875, -1.739306], [37.848194, -1.739306], [37.848194, -1.739028], [37.84875, -1.739028], [37.84875, -1.73875], [37.849306, -1.73875], [37.849306, -1.738472], [37.849583, -1.738472], [37.849583, -1.738194], [37.849861, -1.738194], [37.849861, -1.737639], [37.850139, -1.737639], [37.850139, -1.736528], [37.849861, -1.736528], [37.849861, -1.735417], [37.848194, -1.735417], [37.848194, -1.735694], [37.847361, -1.735694], [37.847361, -1.735417], [37.847083, -1.735417], [37.847083, -1.735139], [37.846528, -1.735139], [37.846528, -1.734583], [37.848194, -1.734583], [37.848194, -1.734306], [37.848472, -1.734306], [37.848472, -1.73375], [37.84875, -1.73375], [37.84875, -1.733472], [37.849028, -1.733472], [37.849028, -1.733194], [37.849306, -1.733194], [37.849306, -1.732917], [37.849583, -1.732917], [37.849583, -1.732361], [37.849306, -1.732361], [37.849306, -1.731528], [37.849028, -1.731528], [37.849028, -1.73125], [37.84875, -1.73125], [37.84875, -1.730972], [37.848472, -1.730972], [37.848472, -1.730417], [37.848194, -1.730417], [37.848194, -1.730139], [37.847917, -1.730139], [37.847917, -1.729861], [37.847083, -1.729861], [37.847083, -1.729583], [37.845694, -1.729583], [37.845694, -1.729306], [37.845417, -1.729306], [37.845417, -1.729583], [37.844583, -1.729583], [37.844583, -1.729306], [37.844028, -1.729306], [37.844028, -1.729028], [37.843194, -1.729028], [37.843194, -1.72875], [37.843472, -1.72875], [37.843472, -1.728472], [37.844028, -1.728472], [37.844028, -1.728194], [37.844583, -1.728194], [37.844583, -1.727917], [37.844861, -1.727917], [37.844861, -1.727639], [37.844583, -1.727639], [37.844583, -1.727083], [37.844306, -1.727083], [37.844306, -1.726806], [37.84375, -1.726806], [37.84375, -1.726528], [37.843472, -1.726528], [37.843472, -1.725694], [37.84375, -1.725694], [37.84375, -1.724583], [37.844028, -1.724583], [37.844028, -1.724028], [37.84375, -1.724028], [37.84375, -1.723194], [37.843472, -1.723194], [37.843472, -1.722361], [37.843194, -1.722361], [37.843194, -1.722083], [37.842917, -1.722083], [37.842917, -1.721528], [37.843194, -1.721528], [37.843194, -1.72125], [37.844306, -1.72125], [37.844306, -1.720972], [37.844583, -1.720972], [37.844583, -1.720417], [37.844861, -1.720417], [37.844861, -1.720139], [37.844583, -1.720139], [37.844583, -1.719861], [37.844861, -1.719861], [37.844861, -1.718194], [37.843472, -1.718194], [37.843472, -1.717917], [37.843194, -1.717917], [37.843194, -1.717639], [37.841806, -1.717639], [37.841806, -1.717361], [37.842361, -1.717361], [37.842361, -1.717083], [37.842083, -1.717083], [37.842083, -1.716528], [37.842639, -1.716528], [37.842639, -1.71625], [37.842917, -1.71625], [37.842917, -1.717083], [37.843472, -1.717083], [37.843472, -1.717361], [37.84375, -1.717361], [37.84375, -1.716806], [37.844028, -1.716806], [37.844028, -1.716528], [37.844583, -1.716528], [37.844583, -1.71625], [37.844861, -1.71625], [37.844861, -1.716528], [37.845417, -1.716528], [37.845417, -1.716806], [37.845694, -1.716806], [37.845694, -1.71625], [37.845139, -1.71625], [37.845139, -1.715694], [37.844861, -1.715694], [37.844861, -1.715417], [37.844583, -1.715417], [37.844583, -1.715139], [37.844306, -1.715139], [37.844306, -1.714861], [37.844028, -1.714861], [37.844028, -1.714583], [37.843472, -1.714583], [37.843472, -1.714306], [37.842361, -1.714306], [37.842361, -1.714028], [37.841528, -1.714028], [37.841528, -1.71375], [37.840972, -1.71375], [37.840972, -1.714028], [37.840417, -1.714028], [37.840417, -1.71375], [37.839583, -1.71375], [37.839583, -1.713472], [37.838194, -1.713472], [37.838194, -1.713194], [37.837361, -1.713194], [37.837361, -1.712917], [37.837083, -1.712917], [37.836528, -1.712917], [37.836528, -1.712639], [37.83625, -1.712639], [37.835972, -1.712639], [37.835972, -1.712361], [37.835694, -1.712361], [37.835417, -1.712361], [37.835417, -1.712639], [37.834583, -1.712639], [37.834583, -1.712083], [37.834861, -1.712083], [37.834861, -1.711806], [37.835417, -1.711806], [37.835417, -1.710417], [37.835417, -1.709861], [37.835694, -1.709861], [37.835694, -1.709306], [37.835972, -1.709306], [37.835972, -1.709028], [37.83625, -1.709028], [37.83625, -1.70875], [37.83625, -1.708194], [37.836528, -1.708194], [37.836528, -1.707917], [37.836528, -1.707083], [37.836806, -1.707083], [37.836806, -1.706806], [37.836806, -1.706528], [37.837083, -1.706528], [37.837083, -1.70625], [37.837083, -1.705972], [37.837361, -1.705972], [37.837361, -1.705694], [37.837361, -1.705417], [37.837639, -1.705417], [37.837639, -1.705139], [37.837639, -1.704028], [37.837917, -1.704028], [37.837917, -1.70375], [37.837917, -1.703194], [37.838194, -1.703194], [37.838194, -1.702639], [37.838472, -1.702639], [37.838472, -1.702361], [37.83875, -1.702361], [37.83875, -1.702083], [37.83875, -1.701528], [37.83875, -1.70125], [37.838472, -1.70125], [37.838472, -1.700972], [37.838472, -1.700694], [37.838194, -1.700694], [37.838194, -1.700417], [37.837917, -1.700417], [37.837917, -1.700139], [37.837639, -1.700139], [37.837639, -1.699861], [37.837361, -1.699861], [37.837361, -1.699583], [37.837361, -1.699306], [37.837083, -1.699306], [37.837083, -1.697639], [37.837083, -1.69625], [37.837083, -1.695972], [37.837361, -1.695972], [37.837361, -1.695694], [37.837361, -1.695417], [37.837639, -1.695417], [37.837639, -1.695139], [37.837917, -1.695139], [37.837917, -1.694306], [37.838194, -1.694306], [37.838194, -1.692639], [37.837917, -1.692639], [37.837917, -1.692361], [37.837361, -1.692361], [37.837361, -1.692083], [37.837083, -1.692083], [37.837083, -1.692361], [37.835972, -1.692361], [37.835972, -1.692639], [37.834861, -1.692639], [37.834861, -1.692361], [37.834028, -1.692361], [37.834028, -1.692083], [37.83375, -1.692083], [37.83375, -1.691806], [37.833472, -1.691806], [37.833472, -1.691528], [37.833194, -1.691528], [37.833194, -1.69125], [37.832917, -1.69125], [37.832917, -1.690417], [37.832639, -1.690417], [37.832639, -1.689306], [37.832361, -1.689306], [37.832361, -1.688472], [37.832083, -1.688472], [37.832083, -1.688194], [37.831806, -1.688194], [37.831806, -1.687639], [37.831528, -1.687639], [37.831528, -1.687361], [37.83125, -1.687361], [37.83125, -1.686528], [37.831528, -1.686528], [37.831528, -1.68625], [37.831806, -1.68625], [37.831806, -1.685694], [37.832083, -1.685694], [37.832083, -1.685139], [37.832361, -1.685139], [37.832361, -1.684028], [37.832083, -1.684028], [37.832083, -1.68375], [37.830972, -1.68375], [37.830972, -1.684028], [37.830417, -1.684028], [37.830417, -1.684306], [37.829861, -1.684306], [37.829861, -1.684583], [37.829583, -1.684583], [37.829583, -1.684861], [37.82875, -1.684861], [37.82875, -1.685139], [37.827083, -1.685139], [37.827083, -1.685417], [37.824861, -1.685417], [37.824861, -1.685139], [37.824306, -1.685139], [37.824306, -1.684861], [37.824028, -1.684861], [37.824028, -1.684583], [37.82375, -1.684583], [37.82375, -1.684306], [37.823472, -1.684306], [37.823472, -1.684028], [37.822083, -1.684028], [37.822083, -1.68375], [37.821528, -1.68375], [37.821528, -1.683472], [37.82125, -1.683472], [37.82125, -1.683194], [37.820972, -1.683194], [37.820972, -1.682917], [37.820694, -1.682917], [37.820694, -1.682639], [37.820417, -1.682639], [37.820417, -1.681528], [37.820139, -1.681528], [37.820139, -1.680139], [37.820417, -1.680139], [37.820417, -1.679306], [37.820694, -1.679306], [37.820694, -1.677361], [37.820972, -1.677361], [37.820972, -1.678472], [37.82125, -1.678472], [37.82125, -1.677639], [37.821528, -1.677639], [37.821528, -1.680417], [37.82125, -1.680417], [37.82125, -1.680972], [37.821528, -1.680972], [37.821528, -1.682917], [37.821806, -1.682917], [37.821806, -1.683194], [37.822083, -1.683194], [37.822083, -1.683472], [37.823472, -1.683472], [37.823472, -1.68375], [37.824306, -1.68375], [37.824306, -1.684028], [37.824583, -1.684028], [37.824583, -1.684583], [37.825417, -1.684583], [37.825417, -1.684861], [37.828472, -1.684861], [37.828472, -1.684583], [37.829028, -1.684583], [37.829028, -1.684306], [37.829306, -1.684306], [37.829306, -1.684028], [37.829861, -1.684028], [37.829861, -1.68375], [37.830139, -1.68375], [37.830139, -1.683472], [37.830694, -1.683472], [37.830694, -1.683194], [37.83125, -1.683194], [37.83125, -1.682917], [37.832361, -1.682917], [37.832361, -1.683472], [37.832639, -1.683472], [37.832639, -1.68375], [37.832917, -1.68375], [37.832917, -1.684861], [37.832639, -1.684861], [37.832639, -1.685694], [37.832361, -1.685694], [37.832361, -1.68625], [37.832083, -1.68625], [37.832083, -1.687639], [37.832361, -1.687639], [37.832361, -1.688194], [37.832639, -1.688194], [37.832639, -1.688472], [37.832917, -1.688472], [37.832917, -1.689028], [37.833194, -1.689028], [37.833194, -1.690417], [37.833472, -1.690417], [37.833472, -1.690972], [37.83375, -1.690972], [37.83375, -1.691528], [37.834306, -1.691528], [37.834306, -1.691806], [37.835139, -1.691806], [37.835139, -1.692083], [37.835417, -1.692083], [37.835417, -1.691806], [37.836806, -1.691806], [37.836806, -1.691528], [37.837083, -1.691528], [37.837083, -1.691806], [37.837361, -1.691806], [37.837361, -1.691528], [37.838194, -1.691528], [37.838194, -1.691806], [37.83875, -1.691806], [37.83875, -1.692083], [37.839028, -1.692083], [37.839028, -1.692639], [37.839306, -1.692639], [37.839306, -1.693194], [37.839028, -1.693194], [37.839028, -1.694306], [37.83875, -1.694306], [37.83875, -1.694861], [37.838472, -1.694861], [37.838472, -1.695417], [37.838194, -1.695417], [37.838194, -1.695972], [37.837917, -1.695972], [37.837917, -1.696528], [37.837917, -1.697361], [37.838194, -1.697361], [37.838194, -1.697639], [37.837917, -1.697639], [37.837917, -1.697917], [37.838194, -1.697917], [37.838194, -1.698472], [37.838194, -1.699028], [37.838472, -1.699028], [37.838472, -1.699306], [37.838472, -1.699583], [37.83875, -1.699583], [37.83875, -1.699861], [37.839028, -1.699861], [37.839028, -1.700139], [37.839306, -1.700139], [37.839306, -1.700694], [37.839583, -1.700694], [37.839583, -1.70125], [37.839583, -1.702083], [37.839306, -1.702083], [37.839306, -1.702917], [37.839028, -1.702917], [37.839028, -1.703194], [37.839028, -1.703472], [37.83875, -1.703472], [37.83875, -1.704028], [37.83875, -1.704306], [37.838472, -1.704306], [37.838472, -1.705139], [37.838472, -1.705417], [37.838194, -1.705417], [37.838194, -1.705972], [37.838194, -1.70625], [37.837917, -1.70625], [37.837917, -1.706806], [37.837917, -1.707361], [37.837639, -1.707361], [37.837639, -1.707639], [37.837639, -1.709028], [37.837361, -1.709028], [37.837361, -1.709306], [37.837083, -1.709306], [37.837083, -1.709583], [37.836806, -1.709583], [37.836806, -1.709861], [37.836806, -1.710139], [37.836528, -1.710139], [37.836528, -1.710417], [37.83625, -1.710417], [37.83625, -1.710694], [37.83625, -1.711528], [37.836528, -1.711528], [37.836528, -1.711806], [37.836806, -1.711806], [37.836806, -1.712083], [37.837083, -1.712083], [37.837083, -1.712361], [37.83875, -1.712361], [37.83875, -1.712083], [37.838472, -1.712083], [37.838472, -1.711806], [37.838194, -1.711806], [37.838194, -1.711528], [37.837917, -1.711528], [37.837917, -1.710972], [37.837639, -1.710972], [37.837639, -1.710417], [37.838194, -1.710417], [37.838194, -1.710139], [37.838472, -1.710139], [37.838472, -1.710417], [37.83875, -1.710417], [37.83875, -1.710694], [37.839028, -1.710694], [37.839028, -1.710972], [37.840139, -1.710972], [37.840139, -1.71125], [37.840972, -1.71125], [37.840972, -1.710972], [37.84125, -1.710972], [37.84125, -1.71125], [37.841806, -1.71125], [37.841806, -1.711528], [37.842639, -1.711528], [37.842639, -1.711806], [37.842917, -1.711806], [37.842917, -1.71125], [37.843194, -1.71125], [37.843194, -1.711528], [37.843472, -1.711528], [37.843472, -1.711806], [37.84375, -1.711806], [37.84375, -1.712083], [37.844028, -1.712083], [37.844028, -1.712361], [37.844306, -1.712361], [37.844583, -1.712361], [37.844583, -1.712639], [37.844861, -1.712639], [37.845139, -1.712639], [37.845139, -1.712917], [37.845417, -1.712917], [37.845417, -1.713194], [37.845694, -1.713194], [37.845694, -1.713472], [37.845694, -1.71375], [37.846528, -1.71375], [37.846528, -1.713472], [37.846806, -1.713472], [37.846806, -1.714306], [37.847083, -1.714306], [37.847083, -1.714583], [37.846806, -1.714583], [37.846806, -1.714861], [37.847083, -1.714861], [37.847083, -1.715139], [37.847361, -1.715139], [37.847361, -1.715417], [37.847083, -1.715417], [37.847083, -1.715694], [37.847361, -1.715694], [37.847361, -1.71625], [37.847361, -1.717083], [37.847639, -1.717083], [37.847639, -1.718472], [37.847361, -1.718472], [37.847361, -1.71875], [37.847083, -1.71875], [37.847083, -1.720417], [37.847361, -1.720417], [37.847361, -1.72125], [37.847083, -1.72125], [37.847083, -1.722361], [37.847361, -1.722361], [37.847361, -1.722639], [37.847083, -1.722639], [37.847083, -1.722917], [37.847083, -1.72375], [37.850139, -1.72375], [37.850139, -1.723472], [37.850694, -1.723472], [37.850694, -1.72375], [37.850417, -1.72375], [37.850417, -1.724306], [37.849583, -1.724306], [37.849583, -1.724861], [37.848194, -1.724861], [37.848194, -1.725694], [37.847083, -1.725694], [37.847083, -1.725972], [37.847361, -1.725972], [37.847361, -1.72625], [37.847639, -1.72625], [37.847639, -1.726528], [37.847917, -1.726528], [37.847917, -1.726806], [37.848472, -1.726806], [37.848472, -1.727083], [37.84875, -1.727083], [37.84875, -1.727639], [37.849028, -1.727639], [37.849028, -1.727917], [37.849583, -1.727917], [37.849583, -1.728194], [37.849861, -1.728194], [37.849861, -1.728472], [37.850972, -1.728472], [37.850972, -1.728194], [37.851806, -1.728194], [37.851806, -1.727917], [37.852361, -1.727917], [37.852361, -1.72875], [37.852083, -1.72875], [37.852083, -1.729028], [37.851806, -1.729028], [37.851806, -1.729306], [37.851528, -1.729306], [37.851528, -1.729861], [37.85125, -1.729861], [37.85125, -1.730139], [37.851528, -1.730139], [37.851528, -1.730417], [37.851806, -1.730417], [37.851806, -1.73125], [37.852083, -1.73125], [37.852083, -1.731528], [37.852639, -1.731528], [37.852639, -1.732639], [37.852917, -1.732639], [37.852917, -1.734306], [37.853472, -1.734306], [37.853472, -1.734028], [37.85375, -1.734028], [37.85375, -1.73375], [37.854583, -1.73375], [37.854583, -1.734028], [37.854306, -1.734028], [37.854306, -1.734306], [37.854583, -1.734306], [37.854583, -1.734583], [37.854306, -1.734583], [37.854306, -1.734861], [37.854028, -1.734861], [37.854028, -1.735417], [37.85375, -1.735417], [37.85375, -1.735694], [37.853472, -1.735694], [37.853472, -1.735972], [37.853194, -1.735972], [37.853194, -1.737917], [37.854028, -1.737917], [37.854028, -1.738194], [37.854306, -1.738194], [37.854306, -1.739583], [37.854583, -1.739583], [37.854583, -1.740139], [37.854861, -1.740139], [37.854861, -1.740417], [37.855417, -1.740417], [37.855417, -1.740972], [37.855694, -1.740972], [37.855694, -1.74125], [37.855417, -1.74125], [37.855417, -1.741806], [37.855694, -1.741806], [37.855694, -1.742917], [37.855972, -1.742917], [37.855972, -1.743194], [37.85625, -1.743194], [37.85625, -1.74375], [37.856528, -1.74375], [37.856528, -1.744306], [37.856806, -1.744306], [37.856806, -1.744861], [37.858194, -1.744861], [37.858194, -1.744583], [37.859028, -1.744583], [37.859028, -1.744306], [37.859306, -1.744306], [37.859306, -1.744028], [37.859861, -1.744028], [37.859861, -1.743472], [37.860139, -1.743472], [37.860139, -1.744028], [37.860417, -1.744028], [37.860417, -1.745139], [37.859861, -1.745139], [37.859861, -1.745417], [37.859583, -1.745417], [37.859583, -1.745972], [37.859028, -1.745972], [37.859028, -1.74625], [37.85875, -1.74625], [37.85875, -1.747083], [37.858194, -1.747083], [37.858194, -1.747917], [37.858472, -1.747917], [37.858472, -1.748194], [37.859028, -1.748194], [37.859028, -1.748472], [37.859583, -1.748472], [37.859583, -1.74875], [37.860972, -1.74875], [37.860972, -1.748472], [37.86125, -1.748472], [37.86125, -1.749306], [37.860694, -1.749306], [37.860694, -1.749583], [37.860139, -1.749583], [37.860139, -1.749861], [37.859861, -1.749861], [37.859861, -1.749583], [37.859306, -1.749583], [37.859306, -1.749861], [37.859028, -1.749861], [37.859028, -1.750139], [37.857917, -1.750139], [37.857917, -1.750972], [37.858194, -1.750972], [37.858194, -1.751528], [37.857917, -1.751528], [37.857917, -1.751806], [37.857917, -1.752083], [37.858194, -1.752083], [37.858472, -1.752083], [37.858472, -1.752361], [37.859306, -1.752361], [37.859306, -1.752917], [37.859583, -1.752917], [37.859583, -1.753194], [37.860139, -1.753194], [37.860139, -1.75375], [37.860417, -1.75375], [37.860417, -1.754306], [37.860972, -1.754306], [37.860972, -1.755694], [37.861528, -1.755694], [37.861528, -1.75625], [37.86125, -1.75625], [37.86125, -1.757917], [37.861806, -1.757917], [37.861806, -1.758194], [37.862083, -1.758194], [37.862083, -1.758472], [37.862639, -1.758472], [37.862639, -1.75875], [37.862917, -1.75875], [37.862917, -1.759028], [37.864583, -1.759028], [37.864583, -1.75875], [37.865694, -1.75875], [37.865694, -1.758472], [37.865972, -1.758472], [37.865972, -1.757361], [37.86625, -1.757361], [37.86625, -1.759306], [37.865694, -1.759306], [37.865694, -1.759861], [37.865972, -1.759861], [37.865972, -1.760139], [37.864306, -1.760139], [37.864306, -1.760417], [37.864028, -1.760417], [37.864028, -1.760972], [37.86375, -1.760972], [37.86375, -1.76125], [37.863472, -1.76125], [37.863472, -1.761806], [37.86375, -1.761806], [37.86375, -1.762083], [37.863194, -1.762083], [37.863194, -1.761806], [37.862639, -1.761806], [37.862639, -1.761528], [37.862083, -1.761528], [37.862083, -1.764306], [37.862361, -1.764306], [37.862361, -1.764861], [37.862639, -1.764861], [37.862639, -1.765139], [37.862917, -1.765139], [37.862917, -1.765694], [37.862083, -1.765694], [37.862083, -1.76625], [37.861806, -1.76625], [37.861806, -1.767083], [37.861528, -1.767083], [37.861528, -1.767917], [37.862639, -1.767917], [37.862639, -1.768194], [37.863472, -1.768194], [37.863472, -1.768472], [37.864861, -1.768472], [37.864861, -1.767639], [37.865139, -1.767639], [37.865139, -1.767361], [37.865417, -1.767361], [37.865417, -1.767083], [37.865694, -1.767083], [37.865694, -1.767361], [37.865972, -1.767361], [37.865972, -1.767083], [37.86625, -1.767083], [37.86625, -1.766806], [37.866806, -1.766806], [37.866806, -1.767083], [37.867083, -1.767083], [37.867083, -1.767361], [37.867639, -1.767361], [37.867639, -1.767639], [37.86875, -1.767639], [37.86875, -1.767361], [37.869028, -1.767361], [37.869028, -1.767639], [37.869306, -1.767639], [37.869306, -1.768472], [37.869028, -1.768472], [37.869028, -1.769306], [37.869306, -1.769306], [37.869306, -1.769861], [37.869583, -1.769861], [37.869583, -1.770139], [37.869861, -1.770139], [37.869861, -1.770417], [37.870417, -1.770417]]], [[[37.869306, -1.767361], [37.869028, -1.767361], [37.869028, -1.767083], [37.869306, -1.767083], [37.869306, -1.767361]]], [[[37.827083, -1.75875], [37.827083, -1.758472], [37.827361, -1.758472], [37.827361, -1.75875], [37.827083, -1.75875]]], [[[37.844583, -1.755139], [37.844306, -1.755139], [37.844306, -1.754861], [37.844583, -1.754861], [37.844583, -1.755139]]], [[[37.823194, -1.751528], [37.823194, -1.751806], [37.822917, -1.751806], [37.822917, -1.751528], [37.823194, -1.751528]]], [[[37.860139, -1.743472], [37.860139, -1.742917], [37.860694, -1.742917], [37.860694, -1.743194], [37.860417, -1.743194], [37.860417, -1.743472], [37.860139, -1.743472]]], [[[37.821806, -1.675694], [37.822361, -1.675694], [37.822361, -1.675139], [37.822639, -1.675139], [37.822639, -1.674861], [37.822917, -1.674861], [37.822917, -1.674583], [37.823194, -1.674583], [37.823194, -1.674028], [37.823472, -1.674028], [37.823472, -1.673472], [37.82375, -1.673472], [37.82375, -1.673194], [37.824028, -1.673194], [37.824028, -1.672361], [37.82375, -1.672361], [37.82375, -1.671528], [37.824028, -1.671528], [37.824028, -1.67125], [37.824306, -1.67125], [37.824306, -1.672083], [37.824583, -1.672083], [37.824583, -1.672639], [37.824306, -1.672639], [37.824306, -1.673472], [37.824028, -1.673472], [37.824028, -1.674028], [37.82375, -1.674028], [37.82375, -1.674583], [37.823472, -1.674583], [37.823472, -1.674861], [37.823194, -1.674861], [37.823194, -1.675139], [37.822917, -1.675139], [37.822917, -1.675417], [37.822639, -1.675417], [37.822639, -1.675972], [37.822361, -1.675972], [37.822361, -1.676528], [37.822083, -1.676528], [37.822083, -1.676806], [37.821806, -1.676806], [37.821806, -1.677639], [37.821528, -1.677639], [37.821528, -1.677083], [37.82125, -1.677083], [37.82125, -1.677361], [37.820972, -1.677361], [37.820972, -1.676806], [37.82125, -1.676806], [37.82125, -1.676528], [37.821528, -1.676528], [37.821528, -1.67625], [37.821806, -1.67625], [37.821806, -1.675694]]]]}}]}
