{"type": "FeatureCollection", "features": [{"type": "Feature", "properties": {"name": "Thwake historic river channel (pre-dam surface water)", "description": "Pixels inside the AOI where JRC Global Surface Water saw water in at least 10% of valid observations, 1984-03/2021-12. Water detected here before impoundment is the river, not the reservoir.", "baseline_version": "v1", "collection": "JRC/GSW1_4/GlobalSurfaceWater", "observation_period": "1984-03/2021-12", "occurrence_min_pct": 10.0, "area_km2": 0.353, "area_in_max_extent_km2": 0.271, "polygons": 50, "max_occurrence_in_aoi_pct": 59, "sensitivity_area_km2_by_occurrence_pct": {"5": 0.426, "10": 0.353, "25": 0.141, "50": 0.017}, "ever_water_area_km2": 0.467, "uncertainty": "Area range across the sensitivity thresholds. The Athi here is narrow and seasonal, so 30 m pixels are mixed and the channel is broken into pieces.", "note": "The record includes 2018–2021, after construction started (2018-03-27); those 4 of ~38 years carry little weight in the occurrence.", "aoi": "data/baseline/aoi.geojson", "method": "docs/methodology.md §1.4", "generated": "2026-10-09"}, "geometry": {"type": "MultiPolygon", "coordinates": [[[[37.832458, -1.688384], [37.832189, -1.688384], [37.832189, -1.688114], [37.832458, -1.688114], [37.832458, -1.688384]]], [[[37.831919, -1.687575], [37.832189, -1.687575], [37.832189, -1.687845], [37.831919, -1.687845], [37.831919, -1.687575]]], [[[37.831919, -1.686497], [37.831919, -1.687575], [37.83165, -1.687575], [37.83165, -1.686497], [37.831919, -1.686497]]], [[[37.831919, -1.685958], [37.832189, -1.685958], [37.832189, -1.686497], [37.831919, -1.686497], [37.831919, -1.685958]]], [[[37.824913, -1.68488], [37.824643, -1.68488], [37.824643, -1.684611], [37.825182, -1.684611], [37.825182, -1.68488], [37.825721, -1.68488], [37.825721, -1.68515], [37.824913, -1.68515], [37.824913, -1.68488]]], [[[37.828955, -1.68488], [37.828955, -1.684611], [37.829224, -1.684611], [37.829224, -1.68488], [37.828955, -1.68488]]], [[[37.829763, -1.684611], [37.829494, -1.684611], [37.829494, -1.684072], [37.829763, -1.684072], [37.829763, -1.684611]]], [[[37.824643, -1.684072], [37.824643, -1.684341], [37.824374, -1.684341], [37.824374, -1.684072], [37.824643, -1.684072]]], [[[37.830033, -1.683802], [37.830033, -1.683533], [37.830572, -1.683533], [37.830572, -1.683802], [37.830302, -1.683802], [37.830302, -1.684341], [37.830033, -1.684341], [37.830033, -1.684072], [37.829763, -1.684072], [37.829763, -1.683802], [37.830033, -1.683802]]], [[[37.823835, -1.684072], [37.823835, -1.683802], [37.824374, -1.683802], [37.824374, -1.684072], [37.823835, -1.684072]]], [[[37.822757, -1.683533], [37.823565, -1.683533], [37.823565, -1.683802], [37.822757, -1.683802], [37.822757, -1.683533]]], [[[37.830572, -1.683533], [37.830572, -1.683263], [37.830841, -1.683263], [37.830841, -1.683533], [37.830572, -1.683533]]], [[[37.821679, -1.682994], [37.821679, -1.683263], [37.821409, -1.683263], [37.821409, -1.682994], [37.821679, -1.682994]]], [[[37.831111, -1.682994], [37.832458, -1.682994], [37.832458, -1.683263], [37.831111, -1.683263], [37.831111, -1.682994]]], [[[37.82114, -1.682724], [37.821409, -1.682724], [37.821409, -1.682994], [37.82114, -1.682994], [37.82114, -1.682724]]], [[[37.82087, -1.682724], [37.82087, -1.682455], [37.82114, -1.682455], [37.82114, -1.682724], [37.82087, -1.682724]]], [[[37.820331, -1.680568], [37.820601, -1.680568], [37.820601, -1.681107], [37.820331, -1.681107], [37.820331, -1.680568]]], [[[37.821948, -1.676256], [37.821948, -1.676795], [37.821409, -1.676795], [37.821409, -1.676256], [37.821679, -1.676256], [37.821679, -1.675987], [37.821948, -1.675987], [37.821948, -1.675717], [37.822218, -1.675717], [37.822218, -1.676256], [37.821948, -1.676256]]], [[[37.822757, -1.675448], [37.822487, -1.675448], [37.822487, -1.675178], [37.822757, -1.675178], [37.822757, -1.675448]]], [[[37.822757, -1.674909], [37.823026, -1.674909], [37.823026, -1.675178], [37.822757, -1.675178], [37.822757, -1.674909]]], [[[37.823296, -1.67437], [37.823296, -1.6741], [37.823565, -1.6741], [37.823565, -1.67437], [37.823296, -1.67437]]], [[[37.823835, -1.673831], [37.823565, -1.673831], [37.823565, -1.673561], [37.823835, -1.673561], [37.823835, -1.673831]]], [[[37.823835, -1.673292], [37.824104, -1.673292], [37.824104, -1.673561], [37.823835, -1.673561], [37.823835, -1.673292]]], [[[37.824104, -1.672753], [37.824104, -1.671136], [37.824374, -1.671136], [37.824374, -1.672753], [37.824104, -1.672753]]], [[[37.837309, -1.712638], [37.837309, -1.712369], [37.839735, -1.712369], [37.839735, -1.712908], [37.838657, -1.712908], [37.838657, -1.712638], [37.837309, -1.712638]]], [[[37.836501, -1.712369], [37.836501, -1.712099], [37.83704, -1.712099], [37.83704, -1.712369], [37.836501, -1.712369]]], [[[37.835962, -1.71156], [37.836231, -1.71156], [37.836231, -1.712099], [37.835962, -1.712099], [37.835962, -1.71183], [37.835692, -1.71183], [37.835692, -1.710213], [37.835962, -1.710213], [37.835962, -1.71156]]], [[[37.83704, -1.706979], [37.837309, -1.706979], [37.837309, -1.70617], [37.837579, -1.70617], [37.837579, -1.705631], [37.837848, -1.705631], [37.837848, -1.704823], [37.838118, -1.704823], [37.838118, -1.705901], [37.837848, -1.705901], [37.837848, -1.706709], [37.837579, -1.706709], [37.837579, -1.707248], [37.837309, -1.707248], [37.837309, -1.708057], [37.83704, -1.708057], [37.83704, -1.708865], [37.83677, -1.708865], [37.83677, -1.709404], [37.836501, -1.709404], [37.836501, -1.709943], [37.836231, -1.709943], [37.836231, -1.710213], [37.835962, -1.710213], [37.835962, -1.709674], [37.836231, -1.709674], [37.836231, -1.709135], [37.836501, -1.709135], [37.836501, -1.708596], [37.83677, -1.708596], [37.83677, -1.707787], [37.83704, -1.707787], [37.83704, -1.706979]]], [[[37.838387, -1.703745], [37.838387, -1.704553], [37.838118, -1.704553], [37.838118, -1.703745], [37.838387, -1.703745]]], [[[37.838657, -1.703745], [37.838387, -1.703745], [37.838387, -1.703206], [37.838657, -1.703206], [37.838657, -1.703745]]], [[[37.837579, -1.698624], [37.837848, -1.698624], [37.837848, -1.699433], [37.837579, -1.699433], [37.837579, -1.698624]]], [[[37.837579, -1.696199], [37.837579, -1.697007], [37.837309, -1.697007], [37.837309, -1.696199], [37.837579, -1.696199]]], [[[37.837848, -1.696199], [37.837579, -1.696199], [37.837579, -1.69566], [37.837848, -1.69566], [37.837848, -1.696199]]], [[[37.838118, -1.69566], [37.837848, -1.69566], [37.837848, -1.695121], [37.838118, -1.695121], [37.838118, -1.69566]]], [[[37.838387, -1.694582], [37.838387, -1.695121], [37.838118, -1.695121], [37.838118, -1.694582], [37.838387, -1.694582]]], [[[37.838387, -1.693773], [37.838657, -1.693773], [37.838657, -1.693234], [37.838926, -1.693234], [37.838926, -1.694043], [37.838657, -1.694043], [37.838657, -1.694582], [37.838387, -1.694582], [37.838387, -1.693773]]], [[[37.837848, -1.691887], [37.838657, -1.691887], [37.838657, -1.692157], [37.838926, -1.692157], [37.838926, -1.692965], [37.838657, -1.692965], [37.838657, -1.692426], [37.838387, -1.692426], [37.838387, -1.692157], [37.837579, -1.692157], [37.837579, -1.691887], [37.837309, -1.691887], [37.837309, -1.691618], [37.837848, -1.691618], [37.837848, -1.691887]]], [[[37.834884, -1.692426], [37.834884, -1.692157], [37.835153, -1.692157], [37.835153, -1.692426], [37.834884, -1.692426]]], [[[37.83677, -1.691887], [37.83704, -1.691887], [37.83704, -1.692157], [37.83677, -1.692157], [37.83677, -1.691887]]], [[[37.834614, -1.691887], [37.834614, -1.692157], [37.834345, -1.692157], [37.834345, -1.691887], [37.834614, -1.691887]]], [[[37.834345, -1.691887], [37.834075, -1.691887], [37.834075, -1.691618], [37.834345, -1.691618], [37.834345, -1.691887]]], [[[37.833536, -1.690809], [37.833536, -1.691348], [37.833267, -1.691348], [37.833267, -1.690809], [37.833536, -1.690809]]], [[[37.832997, -1.690809], [37.832997, -1.69054], [37.833267, -1.69054], [37.833267, -1.690809], [37.832997, -1.690809]]], [[[37.832728, -1.688923], [37.832997, -1.688923], [37.832997, -1.689462], [37.832728, -1.689462], [37.832728, -1.688923]]], [[[37.832728, -1.688384], [37.832728, -1.688923], [37.832458, -1.688923], [37.832458, -1.688384], [37.832728, -1.688384]]], [[[37.832458, -1.68515], [37.832728, -1.68515], [37.832728, -1.685419], [37.832458, -1.685419], [37.832458, -1.68515]]], [[[37.832728, -1.684611], [37.832728, -1.684341], [37.832997, -1.684341], [37.832997, -1.684611], [37.832728, -1.684611]]], [[[37.832458, -1.683802], [37.832458, -1.683533], [37.832728, -1.683533], [37.832728, -1.683802], [37.832458, -1.683802]]], [[[37.843238, -1.78648], [37.843238, -1.785941], [37.842969, -1.785941], [37.842969, -1.785671], [37.842699, -1.785671], [37.842699, -1.785402], [37.84243, -1.785402], [37.84243, -1.784863], [37.84216, -1.784863], [37.84216, -1.784324], [37.841891, -1.784324], [37.841891, -1.784054], [37.841621, -1.784054], [37.841621, -1.783515], [37.841352, -1.783515], [37.841352, -1.783246], [37.841082, -1.783246], [37.841082, -1.782976], [37.840543, -1.782976], [37.840543, -1.782437], [37.840274, -1.782437], [37.840274, -1.781898], [37.840004, -1.781898], [37.840004, -1.781359], [37.840274, -1.781359], [37.840274, -1.780012], [37.840543, -1.780012], [37.840543, -1.779742], [37.840813, -1.779742], [37.840813, -1.779203], [37.841082, -1.779203], [37.841082, -1.778664], [37.841352, -1.778664], [37.841352, -1.779473], [37.841082, -1.779473], [37.841082, -1.780012], [37.840813, -1.780012], [37.840813, -1.780281], [37.840543, -1.780281], [37.840543, -1.781359], [37.840813, -1.781359], [37.840813, -1.782168], [37.841082, -1.782168], [37.841082, -1.782437], [37.841352, -1.782437], [37.841352, -1.782976], [37.841621, -1.782976], [37.841621, -1.783246], [37.841891, -1.783246], [37.841891, -1.783515], [37.84216, -1.783515], [37.84216, -1.783785], [37.84243, -1.783785], [37.84243, -1.784324], [37.842699, -1.784324], [37.842699, -1.784863], [37.842969, -1.784863], [37.842969, -1.785132], [37.843238, -1.785132], [37.843238, -1.785671], [37.843508, -1.785671], [37.843508, -1.785941], [37.843777, -1.785941], [37.843777, -1.786749], [37.844047, -1.786749], [37.844047, -1.787558], [37.844316, -1.787558], [37.844316, -1.788097], [37.844586, -1.788097], [37.844586, -1.789175], [37.844316, -1.789175], [37.844316, -1.788636], [37.844047, -1.788636], [37.844047, -1.787827], [37.843777, -1.787827], [37.843777, -1.787288], [37.843508, -1.787288], [37.843508, -1.78648], [37.843238, -1.78648]]], [[[37.841621, -1.776239], [37.841891, -1.776239], [37.841891, -1.776508], [37.841621, -1.776508], [37.841621, -1.776239]]], [[[37.840543, -1.772196], [37.840813, -1.772196], [37.840813, -1.772735], [37.840543, -1.772735], [37.840543, -1.772196]]], [[[37.841352, -1.771388], [37.841352, -1.771657], [37.841082, -1.771657], [37.841082, -1.771927], [37.840813, -1.771927], [37.840813, -1.771388], [37.841352, -1.771388]]], [[[37.845394, -1.768693], [37.845664, -1.768693], [37.845664, -1.768962], [37.845394, -1.768962], [37.845394, -1.768693]]], [[[37.848089, -1.72773], [37.848089, -1.727999], [37.84782, -1.727999], [37.84782, -1.72773], [37.848089, -1.72773]]], [[[37.84755, -1.72746], [37.84782, -1.72746], [37.84782, -1.72773], [37.84755, -1.72773], [37.84755, -1.72746]]], [[[37.84755, -1.727191], [37.84755, -1.72746], [37.847281, -1.72746], [37.847281, -1.727191], [37.84755, -1.727191]]], [[[37.847281, -1.726921], [37.847281, -1.727191], [37.847011, -1.727191], [37.847011, -1.726921], [37.847281, -1.726921]]], [[[37.846742, -1.726652], [37.847011, -1.726652], [37.847011, -1.726921], [37.846742, -1.726921], [37.846742, -1.726652]]], [[[37.846742, -1.726382], [37.846742, -1.726652], [37.846472, -1.726652], [37.846472, -1.726382], [37.846742, -1.726382]]], [[[37.845933, -1.725843], [37.845933, -1.725304], [37.846472, -1.725304], [37.846472, -1.726382], [37.846203, -1.726382], [37.846203, -1.725843], [37.845933, -1.725843]]], [[[37.846203, -1.724496], [37.846203, -1.723148], [37.846472, -1.723148], [37.846472, -1.724496], [37.846203, -1.724496]]], [[[37.846472, -1.721262], [37.846742, -1.721262], [37.846742, -1.722609], [37.846203, -1.722609], [37.846203, -1.721531], [37.846472, -1.721531], [37.846472, -1.721262]]], [[[37.846472, -1.718567], [37.846742, -1.718567], [37.846742, -1.719106], [37.846472, -1.719106], [37.846472, -1.718567]]], [[[37.846742, -1.715333], [37.847011, -1.715333], [37.847011, -1.717758], [37.846742, -1.717758], [37.846742, -1.715333]]], [[[37.846742, -1.714794], [37.846742, -1.715333], [37.846472, -1.715333], [37.846472, -1.714794], [37.846742, -1.714794]]], [[[37.846472, -1.714525], [37.846472, -1.714794], [37.846203, -1.714794], [37.846203, -1.714525], [37.846472, -1.714525]]], [[[37.846203, -1.714525], [37.845933, -1.714525], [37.845933, -1.714255], [37.846203, -1.714255], [37.846203, -1.714525]]], [[[37.840543, -1.712369], [37.840813, -1.712369], [37.840813, -1.712099], [37.841352, -1.712099], [37.841352, -1.712369], [37.841621, -1.712369], [37.841621, -1.712638], [37.840543, -1.712638], [37.840543, -1.712369]]], [[[37.838926, -1.703206], [37.838657, -1.703206], [37.838657, -1.702667], [37.838926, -1.702667], [37.838926, -1.703206]]], [[[37.838926, -1.702667], [37.838926, -1.702397], [37.839196, -1.702397], [37.839196, -1.702667], [37.838926, -1.702667]]], [[[37.839196, -1.70078], [37.839196, -1.70105], [37.839465, -1.70105], [37.839465, -1.701589], [37.839196, -1.701589], [37.839196, -1.701319], [37.838926, -1.701319], [37.838926, -1.70078], [37.839196, -1.70078]]], [[[37.838657, -1.70078], [37.838657, -1.700511], [37.838926, -1.700511], [37.838926, -1.70078], [37.838657, -1.70078]]], [[[37.85294, -1.77031], [37.85294, -1.769771], [37.853209, -1.769771], [37.853209, -1.77031], [37.85294, -1.77031]]], [[[37.849706, -1.769771], [37.849706, -1.77004], [37.849437, -1.77004], [37.849437, -1.769771], [37.849706, -1.769771]]], [[[37.849437, -1.769501], [37.849437, -1.769771], [37.848898, -1.769771], [37.848898, -1.769501], [37.849437, -1.769501]]], [[[37.848898, -1.769501], [37.848628, -1.769501], [37.848628, -1.769232], [37.848898, -1.769232], [37.848898, -1.769501]]], [[[37.854557, -1.766268], [37.854826, -1.766268], [37.854826, -1.766537], [37.854557, -1.766537], [37.854557, -1.766268]]], [[[37.85806, -1.760339], [37.85833, -1.760339], [37.85833, -1.760608], [37.85806, -1.760608], [37.85806, -1.760339]]], [[[37.857791, -1.75441], [37.857791, -1.75414], [37.85806, -1.75414], [37.85806, -1.75441], [37.857791, -1.75441]]], [[[37.855904, -1.747942], [37.856174, -1.747942], [37.856174, -1.749289], [37.855904, -1.749289], [37.855904, -1.74902], [37.855635, -1.74902], [37.855635, -1.747672], [37.855365, -1.747672], [37.855365, -1.747133], [37.855635, -1.747133], [37.855635, -1.747403], [37.855904, -1.747403], [37.855904, -1.747942]]], [[[37.854018, -1.740396], [37.854018, -1.740935], [37.854287, -1.740935], [37.854287, -1.741205], [37.854557, -1.741205], [37.854557, -1.741744], [37.854826, -1.741744], [37.854826, -1.743091], [37.855096, -1.743091], [37.855096, -1.74363], [37.854287, -1.74363], [37.854287, -1.742013], [37.854018, -1.742013], [37.854018, -1.741205], [37.853748, -1.741205], [37.853748, -1.740666], [37.853479, -1.740666], [37.853479, -1.740396], [37.853209, -1.740396], [37.853209, -1.740127], [37.85294, -1.740127], [37.85294, -1.739588], [37.85267, -1.739588], [37.85267, -1.739318], [37.852401, -1.739318], [37.852401, -1.738779], [37.85267, -1.738779], [37.85267, -1.739049], [37.853209, -1.739049], [37.853209, -1.739318], [37.853479, -1.739318], [37.853479, -1.739857], [37.853748, -1.739857], [37.853748, -1.740396], [37.854018, -1.740396]]], [[[37.852131, -1.737701], [37.852401, -1.737701], [37.852401, -1.738779], [37.852131, -1.738779], [37.852131, -1.737701]]], [[[37.851862, -1.737701], [37.851862, -1.735276], [37.852131, -1.735276], [37.852131, -1.734737], [37.852401, -1.734737], [37.852401, -1.735815], [37.852131, -1.735815], [37.852131, -1.737701], [37.851862, -1.737701]]], [[[37.852401, -1.733389], [37.852401, -1.734198], [37.852131, -1.734198], [37.852131, -1.733389], [37.852401, -1.733389]]], [[[37.851862, -1.73285], [37.851592, -1.73285], [37.851592, -1.732311], [37.851323, -1.732311], [37.851323, -1.731772], [37.851592, -1.731772], [37.851592, -1.732042], [37.851862, -1.732042], [37.851862, -1.732581], [37.852131, -1.732581], [37.852131, -1.733389], [37.851862, -1.733389], [37.851862, -1.73285]]], [[[37.851053, -1.730694], [37.851053, -1.730964], [37.851323, -1.730964], [37.851323, -1.731772], [37.851053, -1.731772], [37.851053, -1.731233], [37.850784, -1.731233], [37.850784, -1.730694], [37.851053, -1.730694]]], [[[37.850514, -1.730694], [37.850514, -1.730155], [37.850784, -1.730155], [37.850784, -1.730694], [37.850514, -1.730694]]], [[[37.850245, -1.729347], [37.850514, -1.729347], [37.850514, -1.729886], [37.850245, -1.729886], [37.850245, -1.729347]]], [[[37.850245, -1.729077], [37.850245, -1.729347], [37.849976, -1.729347], [37.849976, -1.729077], [37.850245, -1.729077]]], [[[37.849976, -1.728808], [37.849976, -1.729077], [37.849706, -1.729077], [37.849706, -1.728808], [37.849976, -1.728808]]], [[[37.849706, -1.728808], [37.849167, -1.728808], [37.849167, -1.728538], [37.849706, -1.728538], [37.849706, -1.728808]]], [[[37.848898, -1.728269], [37.848898, -1.728538], [37.848359, -1.728538], [37.848359, -1.728269], [37.848898, -1.728269]]], [[[37.848359, -1.727999], [37.848359, -1.728269], [37.848089, -1.728269], [37.848089, -1.727999], [37.848359, -1.727999]]]]}}]}
